[{"OBJECT_NAME":"SL-8 R/B","OBJECT_ID":"1991-006B","EPOCH":"2026-03-28T07:03:16.948224","MEAN_MOTION":13.77497038,"ECCENTRICITY":0.00218793,"INCLINATION":82.9445,"RA_OF_ASC_NODE":156.2145,"ARG_OF_PERICENTER":346.6815,"MEAN_ANOMALY":84.4427,"EPHEMERIS_TYPE":0,"CLASSIFICATION_TYPE":"U","NORAD_CAT_ID":21088,"ELEMENT_SET_NO":999,"REV_AT_EPOCH":76663,"BSTAR":6.9651048e-5,"MEAN_MOTION_DOT":8.5e-7,"MEAN_MOTION_DDOT":0},{"OBJECT_NAME":"OKEAN-3","OBJECT_ID":"1991-039A","EPOCH":"2026-03-28T02:20:29.260032","MEAN_MOTION":15.0490905,"ECCENTRICITY":0.00123261,"INCLINATION":82.5165,"RA_OF_ASC_NODE":319.0083,"ARG_OF_PERICENTER":268.6709,"MEAN_ANOMALY":91.3106,"EPHEMERIS_TYPE":0,"CLASSIFICATION_TYPE":"U","NORAD_CAT_ID":21397,"ELEMENT_SET_NO":999,"REV_AT_EPOCH":86780,"BSTAR":0.00014964216,"MEAN_MOTION_DOT":2.148e-5,"MEAN_MOTION_DDOT":0},{"OBJECT_NAME":"COSMOS 2151","OBJECT_ID":"1991-042A","EPOCH":"2026-03-28T05:26:10.432032","MEAN_MOTION":15.00183,"ECCENTRICITY":0.00124616,"INCLINATION":82.4945,"RA_OF_ASC_NODE":65.7893,"ARG_OF_PERICENTER":5.2352,"MEAN_ANOMALY":354.9,"EPHEMERIS_TYPE":0,"CLASSIFICATION_TYPE":"U","NORAD_CAT_ID":21422,"ELEMENT_SET_NO":999,"REV_AT_EPOCH":86597,"BSTAR":0.00020913319,"MEAN_MOTION_DOT":2.642e-5,"MEAN_MOTION_DDOT":0},{"OBJECT_NAME":"SL-14 R/B","OBJECT_ID":"1991-042B","EPOCH":"2026-03-28T06:13:58.846368","MEAN_MOTION":14.81848118,"ECCENTRICITY":0.00171686,"INCLINATION":82.4955,"RA_OF_ASC_NODE":202.7722,"ARG_OF_PERICENTER":175.23,"MEAN_ANOMALY":184.9081,"EPHEMERIS_TYPE":0,"CLASSIFICATION_TYPE":"U","NORAD_CAT_ID":21423,"ELEMENT_SET_NO":999,"REV_AT_EPOCH":85582,"BSTAR":6.298112e-5,"MEAN_MOTION_DOT":5.22e-6,"MEAN_MOTION_DDOT":0},{"OBJECT_NAME":"ERS-1","OBJECT_ID":"1991-050A","EPOCH":"2026-03-28T01:09:21.087936","MEAN_MOTION":14.39462841,"ECCENTRICITY":0.00326491,"INCLINATION":98.7867,"RA_OF_ASC_NODE":105.7434,"ARG_OF_PERICENTER":146.2502,"MEAN_ANOMALY":214.0772,"EPHEMERIS_TYPE":0,"CLASSIFICATION_TYPE":"U","NORAD_CAT_ID":21574,"ELEMENT_SET_NO":999,"REV_AT_EPOCH":81837,"BSTAR":0.00011501029,"MEAN_MOTION_DOT":3.14e-6,"MEAN_MOTION_DDOT":0},{"OBJECT_NAME":"ARIANE 40 R/B","OBJECT_ID":"1991-050F","EPOCH":"2026-03-28T02:59:41.138880","MEAN_MOTION":14.42906561,"ECCENTRICITY":0.00035847,"INCLINATION":98.1974,"RA_OF_ASC_NODE":138.6661,"ARG_OF_PERICENTER":39.4221,"MEAN_ANOMALY":320.723,"EPHEMERIS_TYPE":0,"CLASSIFICATION_TYPE":"U","NORAD_CAT_ID":21610,"ELEMENT_SET_NO":999,"REV_AT_EPOCH":82165,"BSTAR":9.8247674e-5,"MEAN_MOTION_DOT":2.87e-6,"MEAN_MOTION_DDOT":0},{"OBJECT_NAME":"INTERCOSMOS 25","OBJECT_ID":"1991-086A","EPOCH":"2026-03-28T01:34:41.163744","MEAN_MOTION":12.12060072,"ECCENTRICITY":0.14865516,"INCLINATION":82.6015,"RA_OF_ASC_NODE":298.8992,"ARG_OF_PERICENTER":77.3398,"MEAN_ANOMALY":298.9288,"EPHEMERIS_TYPE":0,"CLASSIFICATION_TYPE":"U","NORAD_CAT_ID":21819,"ELEMENT_SET_NO":999,"REV_AT_EPOCH":49891,"BSTAR":0.00030610956,"MEAN_MOTION_DOT":1.597e-5,"MEAN_MOTION_DDOT":0},{"OBJECT_NAME":"SL-8 R/B","OBJECT_ID":"1992-008B","EPOCH":"2026-03-28T05:08:50.644320","MEAN_MOTION":13.75969555,"ECCENTRICITY":0.00358711,"INCLINATION":82.9229,"RA_OF_ASC_NODE":253.9941,"ARG_OF_PERICENTER":83.3592,"MEAN_ANOMALY":89.3729,"EPHEMERIS_TYPE":0,"CLASSIFICATION_TYPE":"U","NORAD_CAT_ID":21876,"ELEMENT_SET_NO":999,"REV_AT_EPOCH":71196,"BSTAR":-6.948865e-6,"MEAN_MOTION_DOT":9.0e-8,"MEAN_MOTION_DDOT":0},{"OBJECT_NAME":"SL-8 R/B","OBJECT_ID":"1992-020B","EPOCH":"2026-03-28T05:47:45.542112","MEAN_MOTION":13.75550531,"ECCENTRICITY":0.00277466,"INCLINATION":82.9304,"RA_OF_ASC_NODE":139.9874,"ARG_OF_PERICENTER":244.5493,"MEAN_ANOMALY":180.4412,"EPHEMERIS_TYPE":0,"CLASSIFICATION_TYPE":"U","NORAD_CAT_ID":21938,"ELEMENT_SET_NO":999,"REV_AT_EPOCH":70368,"BSTAR":2.0497792e-5,"MEAN_MOTION_DOT":3.5e-7,"MEAN_MOTION_DDOT":0},{"OBJECT_NAME":"USA 81","OBJECT_ID":"1992-023A","EPOCH":"2026-03-28T04:06:19.846656","MEAN_MOTION":14.3237381,"ECCENTRICITY":0.00018054,"INCLINATION":85.0048,"RA_OF_ASC_NODE":120.7757,"ARG_OF_PERICENTER":68.008,"MEAN_ANOMALY":292.1304,"EPHEMERIS_TYPE":0,"CLASSIFICATION_TYPE":"U","NORAD_CAT_ID":21949,"ELEMENT_SET_NO":999,"REV_AT_EPOCH":9743,"BSTAR":5.9989607e-5,"MEAN_MOTION_DOT":1.82e-6,"MEAN_MOTION_DDOT":0},{"OBJECT_NAME":"COSMOS 2219","OBJECT_ID":"1992-076A","EPOCH":"2026-03-28T03:00:08.527680","MEAN_MOTION":14.1409103,"ECCENTRICITY":0.00179502,"INCLINATION":71.0624,"RA_OF_ASC_NODE":339.5339,"ARG_OF_PERICENTER":180.0408,"MEAN_ANOMALY":180.0716,"EPHEMERIS_TYPE":0,"CLASSIFICATION_TYPE":"U","NORAD_CAT_ID":22219,"ELEMENT_SET_NO":999,"REV_AT_EPOCH":72098,"BSTAR":-0.00010278915,"MEAN_MOTION_DOT":-2.43e-6,"MEAN_MOTION_DDOT":0},{"OBJECT_NAME":"SL-16 R/B","OBJECT_ID":"1992-076B","EPOCH":"2026-03-28T06:21:48.485664","MEAN_MOTION":14.16864001,"ECCENTRICITY":0.0010683,"INCLINATION":70.9998,"RA_OF_ASC_NODE":149.248,"ARG_OF_PERICENTER":61.6026,"MEAN_ANOMALY":3.9321,"EPHEMERIS_TYPE":0,"CLASSIFICATION_TYPE":"U","NORAD_CAT_ID":22220,"ELEMENT_SET_NO":999,"REV_AT_EPOCH":72446,"BSTAR":-2.4565943e-5,"MEAN_MOTION_DOT":-9.7e-7,"MEAN_MOTION_DDOT":0},{"OBJECT_NAME":"COSMOS 2221","OBJECT_ID":"1992-080A","EPOCH":"2026-03-27T23:04:28.848000","MEAN_MOTION":14.96273973,"ECCENTRICITY":0.00154461,"INCLINATION":82.5007,"RA_OF_ASC_NODE":261.5731,"ARG_OF_PERICENTER":128.0898,"MEAN_ANOMALY":232.172,"EPHEMERIS_TYPE":0,"CLASSIFICATION_TYPE":"U","NORAD_CAT_ID":22236,"ELEMENT_SET_NO":999,"REV_AT_EPOCH":78352,"BSTAR":0.00021455521,"MEAN_MOTION_DOT":2.454e-5,"MEAN_MOTION_DDOT":0},{"OBJECT_NAME":"SL-16 R/B","OBJECT_ID":"1992-093B","EPOCH":"2026-03-28T02:43:45.926400","MEAN_MOTION":14.15454171,"ECCENTRICITY":0.00064752,"INCLINATION":71.0231,"RA_OF_ASC_NODE":325.5916,"ARG_OF_PERICENTER":275.7788,"MEAN_ANOMALY":84.2596,"EPHEMERIS_TYPE":0,"CLASSIFICATION_TYPE":"U","NORAD_CAT_ID":22285,"ELEMENT_SET_NO":999,"REV_AT_EPOCH":71576,"BSTAR":0.00013549516,"MEAN_MOTION_DOT":2.17e-6,"MEAN_MOTION_DDOT":0},{"OBJECT_NAME":"COSMOS 2228","OBJECT_ID":"1992-094A","EPOCH":"2026-03-28T05:35:23.775648","MEAN_MOTION":14.97283155,"ECCENTRICITY":0.00168052,"INCLINATION":82.5183,"RA_OF_ASC_NODE":219.5553,"ARG_OF_PERICENTER":236.9893,"MEAN_ANOMALY":122.9716,"EPHEMERIS_TYPE":0,"CLASSIFICATION_TYPE":"U","NORAD_CAT_ID":22286,"ELEMENT_SET_NO":999,"REV_AT_EPOCH":77883,"BSTAR":0.00026386863,"MEAN_MOTION_DOT":3.091e-5,"MEAN_MOTION_DDOT":0},{"OBJECT_NAME":"SL-16 R/B","OBJECT_ID":"1993-016B","EPOCH":"2026-03-28T05:26:22.859808","MEAN_MOTION":14.1530542,"ECCENTRICITY":0.00123312,"INCLINATION":71.0077,"RA_OF_ASC_NODE":176.2509,"ARG_OF_PERICENTER":290.1919,"MEAN_ANOMALY":69.7878,"EPHEMERIS_TYPE":0,"CLASSIFICATION_TYPE":"U","NORAD_CAT_ID":22566,"ELEMENT_SET_NO":999,"REV_AT_EPOCH":70479,"BSTAR":2.422381e-6,"MEAN_MOTION_DOT":-4.3e-7,"MEAN_MOTION_DDOT":0},{"OBJECT_NAME":"COSMOS 2242","OBJECT_ID":"1993-024A","EPOCH":"2026-03-27T22:56:11.693760","MEAN_MOTION":14.96624331,"ECCENTRICITY":0.00150493,"INCLINATION":82.5161,"RA_OF_ASC_NODE":249.2396,"ARG_OF_PERICENTER":241.5138,"MEAN_ANOMALY":118.457,"EPHEMERIS_TYPE":0,"CLASSIFICATION_TYPE":"U","NORAD_CAT_ID":22626,"ELEMENT_SET_NO":999,"REV_AT_EPOCH":78312,"BSTAR":0.00016631168,"MEAN_MOTION_DOT":1.924e-5,"MEAN_MOTION_DDOT":0}]
