SL-8 R/B                
1 21088U 91006B   26087.29394616  .00000085  00000+0  69651-4 0  9991
2 21088  82.9445 156.2145 0021879 346.6815  84.4427 13.77497038766633
OKEAN-3                 
1 21397U 91039A   26087.09756088  .00002148  00000+0  14964-3 0  9991
2 21397  82.5165 319.0083 0012326 268.6709  91.3106 15.04909050867809
COSMOS 2151             
1 21422U 91042A   26087.22650963  .00002642  00000+0  20913-3 0  9994
2 21422  82.4945  65.7893 0012461   5.2352 354.9000 15.00183000865978
SL-14 R/B               
1 21423U 91042B   26087.25970887  .00000522  00000+0  62981-4 0  9995
2 21423  82.4955 202.7722 0017168 175.2300 184.9081 14.81848118855823
ERS-1                   
1 21574U 91050A   26087.04816074  .00000314  00000+0  11501-3 0  9995
2 21574  98.7867 105.7434 0032649 146.2502 214.0772 14.39462841818376
ARIANE 40 R/B           
1 21610U 91050F   26087.12478170  .00000287  00000+0  98248-4 0  9999
2 21610  98.1974 138.6661 0003584  39.4221 320.7230 14.42906561821659
INTERCOSMOS 25          
1 21819U 91086A   26087.06575421  .00001597  00000+0  30611-3 0  9993
2 21819  82.6015 298.8992 1486551  77.3398 298.9288 12.12060072498917
SL-8 R/B                
1 21876U 92008B   26087.21447505  .00000009  00000+0 -69489-5 0  9994
2 21876  82.9229 253.9941 0035871  83.3592  89.3729 13.75969555711962
SL-8 R/B                
1 21938U 92020B   26087.24149933  .00000035  00000+0  20498-4 0  9998
2 21938  82.9304 139.9874 0027746 244.5493 180.4412 13.75550531703688
USA 81                  
1 21949U 92023A   26087.17106304  .00000182  00000+0  59990-4 0  9992
2 21949  85.0048 120.7757 0001805  68.0080 292.1304 14.32373810 97433
COSMOS 2219             
1 22219U 92076A   26087.12509870 -.00000243  00000+0 -10279-3 0  9997
2 22219  71.0624 339.5339 0017950 180.0408 180.0716 14.14091030720988
SL-16 R/B               
1 22220U 92076B   26087.26514451 -.00000097  00000+0 -24566-4 0  9997
2 22220  70.9998 149.2480 0010683  61.6026   3.9321 14.16864001724461
COSMOS 2221             
1 22236U 92080A   26086.96144500  .00002454  00000+0  21456-3 0  9990
2 22236  82.5007 261.5731 0015446 128.0898 232.1720 14.96273973783523
SL-16 R/B               
1 22285U 92093B   26087.11372600  .00000217  00000+0  13550-3 0  9991
2 22285  71.0231 325.5916 0006475 275.7788  84.2596 14.15454171715765
COSMOS 2228             
1 22286U 92094A   26087.23291407  .00003091  00000+0  26387-3 0  9996
2 22286  82.5183 219.5553 0016805 236.9893 122.9716 14.97283155778835
SL-16 R/B               
1 22566U 93016B   26087.22665347 -.00000043  00000+0  24224-5 0  9994
2 22566  71.0077 176.2509 0012331 290.1919  69.7878 14.15305420704793
COSMOS 2242             
1 22626U 93024A   26086.95569090  .00001924  00000+0  16631-3 0  9996
2 22626  82.5161 249.2396 0015049 241.5138 118.4570 14.96624331783127
